[
    {
        "Altitude(m)": 617719.7626099996,
        "Argument of Periapsis(deg)": 0.0,
        "Eccentricity": 0.0,
        "Inclination(deg)": 60.0,
        "Latitude(deg)": -41.102617546266046,
        "Longitude(deg)": -164.90545851162392,
        "Mean Anomaly(deg)": 229.09090000000006,
        "RAAN(deg)": 85.00000000000001,
        "Satellite Name": "Test1 388",
        "Satellite Number": 388,
        "Semi-Major Axis(m)": 6980739.136638005,
        "Time(s)": 0
    },
    {
        "Altitude(m)": 617911.2988947455,
        "Argument of Periapsis(deg)": 0.00010418945913296404,
        "Eccentricity": 0.0,
        "Inclination(deg)": 60.0,
        "Latitude(deg)": -41.565810597318574,
        "Longitude(deg)": -164.40105386845389,
        "Mean Anomaly(deg)": 229.71100614546188,
        "RAAN(deg)": 84.99957995086027,
        "Satellite Name": "Test1 388",
        "Satellite Number": 388,
        "Semi-Major Axis(m)": 6980739.136638005,
        "Time(s)": 10
    }
]